#aV2008  4 21  0  0   .00000000      96 DD+AD WGS84 FIT  NGA
## 1476  86400.00000000   900.00000000 54577  .0000000000000
+   31     2  3  4  5  6  7  8  9 10 11 12 13 14 15 16 17 18
+         19 20 21 22 23 24 25 26 27 28 29 30 31 32  0  0  0
+          0  0  0  0  0  0  0  0  0  0  0  0  0  0  0  0  0
+          0  0  0  0  0  0  0  0  0  0  0  0  0  0  0  0  0
+          0  0  0  0  0  0  0  0  0  0  0  0  0  0  0  0  0
++         0  0  0  0  0  0  0  0  0  0  0  0  0  0  0  0  0
++         0  0  0  0  0  0  0  0  0  0  0  0  0  0  0  0  0
++         0  0  0  0  0  0  0  0  0  0  0  0  0  0  0  0  0
++         0  0  0  0  0  0  0  0  0  0  0  0  0  0  0  0  0
++         0  0  0  0  0  0  0  0  0  0  0  0  0  0  0  0  0
%c cc cc ccc ccc cccc cccc cccc cccc ccccc ccccc ccccc ccccc
%c cc cc ccc ccc cccc cccc cccc cccc ccccc ccccc ccccc ccccc
%f  0.0000000  0.000000000  0.00000000000  0.000000000000000
%f  0.0000000  0.000000000  0.00000000000  0.000000000000000
%i    0    0    0    0      0      0      0      0         0
%i    0    0    0    0      0      0      0      0         0
/*      NGA, ST. LOUIS,MO.                                  
/*   EPHEMERIS COMPUTED FROM  3 DAYS OF DATA                
/* CCCCCCCCCCCCCCCCCCCCCCCCCCCCCCCCCCCCCCCCCCCCCCCCCCCCCCCCC
/* CCCCCCCCCCCCCCCCCCCCCCCCCCCCCCCCCCCCCCCCCCCCCCCCCCCCCCCCC
*  2008  4 21  7 15   .00000000                                                 
P  2 -13497.672803 -11232.339164 -20187.627433    192.435396                    
V  2   3682.152097 -24979.709718  11187.824030       .032305                    
P  3  24249.767094   9988.167579   4998.056488    217.332566                    
V  3   3900.090322   6424.711167 -29877.934735       .053657                    
P  4  -7627.814910 -21068.499744 -14074.730189    -50.668095                    
V  4   4986.457167 -17410.350798  23880.261598      -.079229                    
P  5 -19831.955916  16340.120889  -6676.103604    754.552512                    
V  5  -8785.356990    998.266645  29870.050797       .089375                    
P  6  17019.106629  18711.170994  -7919.652774    106.320165                    
V  6 -10486.599044  -2963.710431 -28920.420900       .113475                    
P  7   7920.944546 -24258.228446  -7270.789282    -64.100090                    
V  7   1591.478927   9462.626838 -29997.032001       .112836                    
P  8    195.753949 -25569.809325   6115.702191   -149.805678                    
V  8   3717.357324  -7444.111236 -31273.540615      -.014262                    
P  9 -13482.273593  12968.693428  18164.958480    120.950132                    
V  9    318.083980 -24443.644760  17268.819045       .016752                    
P 10 -22757.332352  -1346.075194 -14036.157232      -.835325                    
V 10  15513.032538  -8213.687018 -24279.257040      -.003880                    
P 11  12326.211252 -16243.010898  16707.788250     26.206341                    
V 11   4713.235882  21604.549029  17698.809528      -.002155                    
P 12 -23491.218895  12008.515414  -2507.442572   -359.065887                    
V 12  -4148.874512  -1277.937547  31655.332288      -.001533                    
P 13   3158.082888 -15429.837251 -21507.653696    251.628942                    
V 13  21132.231113  16712.582374  -8908.776439       .018718                    
P 14  12524.175766  20107.831175  12205.659157   -275.113385                    
V 14 -12910.591937  -8280.480564  27014.742205       .040656                    
P 15 -21870.177017  -3028.616813  14790.481073   -100.192025                    
V 15 -13916.785231 -12742.449083 -23212.560693      -.050960                    
P 16  19636.938492   4840.965533 -17240.582291    127.839770                    
V 16 -19713.798728   9789.405343 -19426.229801      -.012499                    
P 17 -12578.954479 -20179.258811  12034.309416     39.662027                    
V 17  13431.295158   7398.331489  26368.328945      -.004139                    
P 18 -10405.072751  17323.676327  17224.945485   -185.335526                    
V 18 -21001.198452   5906.787083 -19169.243943       .035382                    
P 19  21336.474554   3874.195828  15542.423666     27.865061                    
V 19  13582.340313  14144.489254 -22119.532810       .010228                    
P 20  22267.107802 -13713.632189  -4616.659207    116.037231                    
V 20   6540.861522    546.173290  30757.164683      -.008203                    
P 21  -4809.367645  25724.275115  -1549.274314     66.449197                    
V 21  -3753.744848  -2773.374119 -31528.917818      -.010247                    
P 22   4493.868651  14983.251860  21615.219902    210.648179                    
V 22 -25420.639713   9530.332984  -1377.744869       .004380                    
P 23  15391.806962  -6263.725894 -20843.565861    348.994484                    
V 23  20585.528072  16247.990452  10120.259713       .023767                    
P 24 -12814.679965  19110.935239 -13339.519091     88.010206                    
V 24    616.997198 -17259.922991 -24727.483286       .029035                    
P 25   9592.784320 -20807.912174 -13219.537953    -95.041854                    
V 25   1774.628782  17350.100312 -25156.594414      -.288629                    
P 26 -22322.268472  -8197.663377  11907.487397    236.352140                    
V 26 -11337.426715 -10839.801595 -27069.641301       .085177                    
P 27   4163.522642 -25728.770254  -3995.044067    182.872446                    
V 27   2395.841407   6068.607680 -31498.272429       .026796                    
P 28  -2354.679420 -15426.221224  21843.635277    -18.076297                    
V 28  25115.618006  -9542.528913  -4435.817235      -.005195                    
P 29  -6809.598824  13798.410714 -21531.611261    -43.829282                    
V 29 -22037.110293 -16661.839764  -3660.930430       .005784                    
P 30 -15349.710699  17618.482331 -12863.501651     72.937206                    
V 30 -15422.727991   4543.702512  25387.956719       .016372                    
P 31   8297.221764  19933.230646 -15189.791061    -17.226178                    
V 31  -4180.193777  19341.447188  22892.794015      -.013275                    
P 32  22153.100626   3153.554229  14623.461637    272.864898                    
V 32 -16338.002548   7475.368813  24008.892225       .063669                    
EOF
